ONEWEB-0558             
1 56059U 23043P   26003.12295666 -.00000074  00000+0 -21069-3 0  9998
2 56059  87.9224 276.9084 0001171  61.4358 298.6894 13.21825319136430
ONEWEB-0559             
1 56060U 23043Q   26003.11142287  .00000092  00000+0  19133-3 0  9996
2 56060  87.9226 276.9040 0001548  65.1877 294.9418 13.21826598136443
ONEWEB-0566             
1 56061U 23043R   26003.02914342  .00000009  00000+0 -98503-5 0  9995
2 56061  87.9226 276.9190 0001451  61.6359 298.4921 13.21826558136410
ONEWEB-0568             
1 56062U 23043S   26003.17352990  .00000178  00000+0  43270-3 0  9992
2 56062  87.9046 261.6261 0001483  83.0155 277.1144 13.16593556137266
ONEWEB-0574             
1 56063U 23043T   26003.17395220  .00000150  00000+0  33198-3 0  9994
2 56063  87.9226 276.8777 0001777  75.0827 285.0504 13.21828268136477
ONEWEB-0575             
1 56064U 23043U   26003.16719488  .00000268  00000+0  66834-3 0  9993
2 56064  87.9039 261.6271 0001832  80.8489 279.2849 13.16593992137252
ONEWEB-0576             
1 56065U 23043V   26003.14820225  .00000156  00000+0  37550-3 0  9993
2 56065  87.9046 261.6328 0001687  79.7120 280.4201 13.16593916137242
ONEWEB-0577             
1 56066U 23043W   26003.15453101  .00000161  00000+0  38776-3 0  9997
2 56066  87.9047 261.6307 0002270  80.8602 279.2786 13.16593666137277
